{
  "type": "FeatureCollection",
  "features": [
    {
      "type": "Feature",
      "geometry": {
        "type": "Point",
        "coordinates": [
          -121.74012,
          38.54501
        ]
      },
      "properties": {
        "address": "303 3rd St, Davis, CA 95616",
        "rent": 1550.0,
        "beds": 1,
        "baths": 1.0,
        "sqft": 540.0,
        "opportunity_score": 80.42,
        "score_explanation": "Rent efficiency looks strong for the layout; about 2.0 km from campus; steps from downtown dining and errands; walkable cluster with 96 food and daily-life spots nearby; several transit stops within a short walk; versus median $1650 for 1br nearby",
        "property_type": "Apartment",
        "source": "sample_davis_ca",
        "listing_url": "https://example.com/listings/303-3rd"
      }
    },
    {
      "type": "Feature",
      "geometry": {
        "type": "Point",
        "coordinates": [
          -121.73988,
          38.55134
        ]
      },
      "properties": {
        "address": "801 L St, Davis, CA 95616",
        "rent": 1650.0,
        "beds": 1,
        "baths": 1.0,
        "sqft": 625.0,
        "opportunity_score": 70.28,
        "score_explanation": "Rent efficiency looks strong for the layout; about 2.4 km from campus; reachable to downtown without a long drive; walkable cluster with 32 food and daily-life spots nearby; several transit stops within a short walk; versus median $1550 for 1br nearby",
        "property_type": "Condo",
        "source": "sample_davis_ca",
        "listing_url": "https://example.com/listings/801-l-st"
      }
    },
    {
      "type": "Feature",
      "geometry": {
        "type": "Point",
        "coordinates": [
          -121.7385,
          38.5439
        ]
      },
      "properties": {
        "address": "408 F St, Davis, CA 95616",
        "rent": 1895.0,
        "beds": 2,
        "baths": 1.0,
        "sqft": 780.0,
        "opportunity_score": 70.12,
        "score_explanation": "Rent is reasonable on a per-bedroom basis; about 2.1 km from campus; steps from downtown dining and errands; walkable cluster with 99 food and daily-life spots nearby; several transit stops within a short walk; versus median $1850 for 2br nearby",
        "property_type": "Condo",
        "source": "sample_davis_ca",
        "listing_url": "https://example.com/listings/408-f-st"
      }
    },
    {
      "type": "Feature",
      "geometry": {
        "type": "Point",
        "coordinates": [
          -121.7502,
          38.5398
        ]
      },
      "properties": {
        "address": "1 Shields Ave, Davis, CA 95616",
        "rent": 1750.0,
        "beds": 2,
        "baths": 1.0,
        "sqft": 760.0,
        "opportunity_score": 68.65,
        "score_explanation": "Rent is on the high side versus interior space; about 1.0 km from campus; walkable cluster with 34 food and daily-life spots nearby; several transit stops within a short walk; versus median $1980 for 2br nearby",
        "property_type": "Apartment",
        "source": "sample_davis_ca",
        "listing_url": "https://example.com/listings/shields-ave"
      }
    },
    {
      "type": "Feature",
      "geometry": {
        "type": "Point",
        "coordinates": [
          -121.7423,
          38.5441
        ]
      },
      "properties": {
        "address": "450 J St, Davis, CA 95616",
        "rent": 2450.0,
        "beds": 3,
        "baths": 2.0,
        "sqft": 1180.0,
        "opportunity_score": 61.54,
        "score_explanation": "Rent is on the high side versus interior space; about 1.8 km from campus; steps from downtown dining and errands; walkable cluster with 97 food and daily-life spots nearby; several transit stops within a short walk; limited peer comps nearby",
        "property_type": "Single Family",
        "source": "sample_davis_ca",
        "listing_url": "https://example.com/listings/450-j-st"
      }
    },
    {
      "type": "Feature",
      "geometry": {
        "type": "Point",
        "coordinates": [
          -121.7342,
          38.5525
        ]
      },
      "properties": {
        "address": "1100 Alvarado Ave, Davis, CA 95616",
        "rent": 1380.0,
        "beds": 1,
        "baths": 1.0,
        "sqft": 520.0,
        "opportunity_score": 57.98,
        "score_explanation": "Rent efficiency looks strong for the layout; about 2.9 km from campus; 12 walkable amenities in the corridor; several transit stops within a short walk; versus median $1550 for 1br nearby",
        "property_type": "Apartment",
        "source": "sample_davis_ca",
        "listing_url": "https://example.com/listings/1100-alvarado"
      }
    },
    {
      "type": "Feature",
      "geometry": {
        "type": "Point",
        "coordinates": [
          -121.7619,
          38.54765
        ]
      },
      "properties": {
        "address": "1800 Shasta Dr, Davis, CA 95616",
        "rent": 1980.0,
        "beds": 2,
        "baths": 1.0,
        "sqft": 820.0,
        "opportunity_score": 52.84,
        "score_explanation": "Rent is reasonable on a per-bedroom basis; about 1.0 km from campus; 12 walkable amenities in the corridor; several transit stops within a short walk; limited peer comps nearby",
        "property_type": "Duplex",
        "source": "sample_davis_ca",
        "listing_url": "https://example.com/listings/shasta-dr"
      }
    },
    {
      "type": "Feature",
      "geometry": {
        "type": "Point",
        "coordinates": [
          -121.7321,
          38.5634
        ]
      },
      "properties": {
        "address": "500 Pole Line Rd, Davis, CA 95618",
        "rent": 1425.0,
        "beds": 1,
        "baths": 1.0,
        "sqft": 590.0,
        "opportunity_score": 46.03,
        "score_explanation": "Rent is reasonable on a per-bedroom basis; about 3.8 km from campus; 12 walkable amenities in the corridor; some nearby transit access; versus median $1495 for 1br nearby",
        "property_type": "Apartment",
        "source": "sample_davis_ca",
        "listing_url": "https://example.com/listings/pole-line"
      }
    },
    {
      "type": "Feature",
      "geometry": {
        "type": "Point",
        "coordinates": [
          -121.731,
          38.5695
        ]
      },
      "properties": {
        "address": "250 Cowell Blvd, Davis, CA 95618",
        "rent": 1495.0,
        "beds": 1,
        "baths": 1.0,
        "sqft": 580.0,
        "opportunity_score": 45.66,
        "score_explanation": "Rent efficiency looks strong for the layout; about 4.4 km from campus; 10 walkable amenities in the corridor; some nearby transit access; versus median $1595 for 1br nearby",
        "property_type": "Apartment",
        "source": "sample_davis_ca",
        "listing_url": "https://example.com/listings/cowell-blvd"
      }
    },
    {
      "type": "Feature",
      "geometry": {
        "type": "Point",
        "coordinates": [
          -121.7238,
          38.5712
        ]
      },
      "properties": {
        "address": "2000 Moore Blvd, Davis, CA 95618",
        "rent": 1595.0,
        "beds": 1,
        "baths": 1.0,
        "sqft": 610.0,
        "opportunity_score": 45.15,
        "score_explanation": "Rent efficiency looks strong for the layout; about 4.9 km from campus; walkable cluster with 18 food and daily-life spots nearby; some nearby transit access; versus median $1495 for 1br nearby",
        "property_type": "Apartment",
        "source": "sample_davis_ca",
        "listing_url": "https://example.com/listings/moore-blvd"
      }
    },
    {
      "type": "Feature",
      "geometry": {
        "type": "Point",
        "coordinates": [
          -121.73682,
          38.55412
        ]
      },
      "properties": {
        "address": "720 Alvarado Ave, Davis, CA 95616",
        "rent": 1850.0,
        "beds": 2,
        "baths": 1.0,
        "sqft": 850.0,
        "opportunity_score": 44.14,
        "score_explanation": "Rent is on the high side versus interior space; about 2.8 km from campus; 9 walkable amenities in the corridor; several transit stops within a short walk; limited peer comps nearby",
        "property_type": "Apartment",
        "source": "sample_davis_ca",
        "listing_url": "https://example.com/listings/720-alvarado"
      }
    },
    {
      "type": "Feature",
      "geometry": {
        "type": "Point",
        "coordinates": [
          -121.72105,
          38.55971
        ]
      },
      "properties": {
        "address": "1321 Alhambra Dr, Davis, CA 95616",
        "rent": 2750.0,
        "beds": 4,
        "baths": 2.5,
        "sqft": 1450.0,
        "opportunity_score": 42.72,
        "score_explanation": "Rent is on the high side versus interior space; about 4.3 km from campus; walkable cluster with 20 food and daily-life spots nearby; several transit stops within a short walk; versus median $3200 for 4br nearby",
        "property_type": "Single Family",
        "source": "sample_davis_ca",
        "listing_url": "https://example.com/listings/alhambra-dr"
      }
    },
    {
      "type": "Feature",
      "geometry": {
        "type": "Point",
        "coordinates": [
          -121.7256,
          38.5489
        ]
      },
      "properties": {
        "address": "600 Drake Dr, Davis, CA 95616",
        "rent": 2200.0,
        "beds": 3,
        "baths": 2.0,
        "sqft": 1040.0,
        "opportunity_score": 37.36,
        "score_explanation": "Rent is on the high side versus interior space; about 3.4 km from campus; 10 walkable amenities in the corridor; several transit stops within a short walk; limited peer comps nearby",
        "property_type": "Townhome",
        "source": "sample_davis_ca",
        "listing_url": "https://example.com/listings/drake-dr"
      }
    },
    {
      "type": "Feature",
      "geometry": {
        "type": "Point",
        "coordinates": [
          -121.69452,
          38.56201
        ]
      },
      "properties": {
        "address": "2500 Da Vinci Ct, Davis, CA 95618",
        "rent": 2100.0,
        "beds": 2,
        "baths": 2.0,
        "sqft": 980.0,
        "opportunity_score": 36.32,
        "score_explanation": "Rent is on the high side versus interior space; about 6.4 km from campus; lighter immediate amenity density; several transit stops within a short walk; limited peer comps nearby",
        "property_type": "Townhome",
        "source": "sample_davis_ca",
        "listing_url": "https://example.com/listings/da-vinci-ct"
      }
    },
    {
      "type": "Feature",
      "geometry": {
        "type": "Point",
        "coordinates": [
          -121.75123,
          38.55089
        ]
      },
      "properties": {
        "address": "425 Russell Blvd, Davis, CA 95616",
        "rent": 2400.0,
        "beds": 3,
        "baths": 2.0,
        "sqft": 1150.0,
        "opportunity_score": 36.27,
        "score_explanation": "Rent is on the high side versus interior space; about 1.7 km from campus; 8 walkable amenities in the corridor; some nearby transit access; limited peer comps nearby",
        "property_type": "Single Family",
        "source": "sample_davis_ca",
        "listing_url": "https://example.com/listings/425-russell"
      }
    },
    {
      "type": "Feature",
      "geometry": {
        "type": "Point",
        "coordinates": [
          -121.7189,
          38.5533
        ]
      },
      "properties": {
        "address": "815 Cranbrook Ct, Davis, CA 95616",
        "rent": 2280.0,
        "beds": 3,
        "baths": 2.0,
        "sqft": 1080.0,
        "opportunity_score": 35.81,
        "score_explanation": "Rent is on the high side versus interior space; about 4.1 km from campus; 11 walkable amenities in the corridor; several transit stops within a short walk; limited peer comps nearby",
        "property_type": "Townhome",
        "source": "sample_davis_ca",
        "listing_url": "https://example.com/listings/cranbrook"
      }
    },
    {
      "type": "Feature",
      "geometry": {
        "type": "Point",
        "coordinates": [
          -121.7086,
          38.5658
        ]
      },
      "properties": {
        "address": "812 Sycamore Ln, Davis, CA 95616",
        "rent": 1725.0,
        "beds": 2,
        "baths": 1.0,
        "sqft": 745.0,
        "opportunity_score": 32.55,
        "score_explanation": "Rent is on the high side versus interior space; about 5.5 km from campus; 16 walkable amenities in the corridor; limited nearby transit in OSM for this block; limited peer comps nearby",
        "property_type": "Duplex",
        "source": "sample_davis_ca",
        "listing_url": "https://example.com/listings/812-sycamore"
      }
    },
    {
      "type": "Feature",
      "geometry": {
        "type": "Point",
        "coordinates": [
          -121.7295,
          38.558
        ]
      },
      "properties": {
        "address": "3333 Alvarado Ave, Davis, CA 95616",
        "rent": 3100.0,
        "beds": 4,
        "baths": 3.0,
        "sqft": 1750.0,
        "opportunity_score": 29.22,
        "score_explanation": "Rent is on the high side versus interior space; about 3.6 km from campus; lighter immediate amenity density; some nearby transit access; versus median $3200 for 4br nearby",
        "property_type": "Single Family",
        "source": "sample_davis_ca",
        "listing_url": "https://example.com/listings/3333-alvarado"
      }
    },
    {
      "type": "Feature",
      "geometry": {
        "type": "Point",
        "coordinates": [
          -121.7278,
          38.5562
        ]
      },
      "properties": {
        "address": "616 Cantrill Dr, Davis, CA 95616",
        "rent": 3200.0,
        "beds": 4,
        "baths": 3.0,
        "sqft": 1680.0,
        "opportunity_score": 28.74,
        "score_explanation": "Rent is on the high side versus interior space; about 3.6 km from campus; 9 walkable amenities in the corridor; some nearby transit access; versus median $3100 for 4br nearby",
        "property_type": "Single Family",
        "source": "sample_davis_ca",
        "listing_url": "https://example.com/listings/cantrill"
      }
    },
    {
      "type": "Feature",
      "geometry": {
        "type": "Point",
        "coordinates": [
          -121.7054,
          38.5671
        ]
      },
      "properties": {
        "address": "3500 Sycamore Ln, Davis, CA 95616",
        "rent": 2650.0,
        "beds": 3,
        "baths": 2.5,
        "sqft": 1320.0,
        "opportunity_score": 22.23,
        "score_explanation": "Rent is on the high side versus interior space; about 5.9 km from campus; lighter immediate amenity density; limited nearby transit in OSM for this block; limited peer comps nearby",
        "property_type": "Single Family",
        "source": "sample_davis_ca",
        "listing_url": "https://example.com/listings/sycamore"
      }
    }
  ]
}